[
    {
        "Altitude(m)": 612513.8955581365,
        "Argument of Periapsis(deg)": 0.0,
        "Eccentricity": 0.0,
        "Inclination(deg)": 60.0,
        "Latitude(deg)": -28.135846611224988,
        "Longitude(deg)": 87.91312559470997,
        "Mean Anomaly(deg)": -147.27269999999996,
        "RAAN(deg)": 350.0,
        "Satellite Name": "Test1 1553",
        "Satellite Number": 1553,
        "Semi-Major Axis(m)": 6980739.136638005,
        "Time(s)": 0
    },
    {
        "Altitude(m)": 612708.2630688264,
        "Argument of Periapsis(deg)": 0.00010418945913296404,
        "Eccentricity": 0.0,
        "Inclination(deg)": 60.0,
        "Latitude(deg)": -28.64758565719514,
        "Longitude(deg)": 88.27035580856617,
        "Mean Anomaly(deg)": -146.65259385453817,
        "RAAN(deg)": 349.99957995086027,
        "Satellite Name": "Test1 1553",
        "Satellite Number": 1553,
        "Semi-Major Axis(m)": 6980739.136638005,
        "Time(s)": 10
    }
]